{"spkid": "50831920", "covariance": {"labels": ["e", "q", "tp", "node", "peri", "i"], "data": [["1.838990694237665E-14", "-2.023218091694123E-14", "-9.683499020920651E-13", "2.950025863140457E-13", "-3.253924501313083E-12", "-7.40042867568498E-15"], ["-2.023218091694123E-14", "2.228246792907704E-14", "9.868039873509185E-13", "-3.635340673154864E-13", "3.544950507133664E-12", "1.406203980357771E-14"], ["-9.683499020920651E-13", "9.868039873509185E-13", "5.222576211541937E-10", "1.792478496704996E-10", "4.238173894958005E-10", "-3.235949475631154E-11"], ["2.950025863140457E-13", "-3.635340673154864E-13", "1.792478496704996E-10", "9.092241044550201E-9", "-8.950824217772206E-9", "-3.371214131453875E-10"], ["-3.253924501313083E-12", "3.544950507133664E-12", "4.238173894958005E-10", "-8.950824217772206E-9", "9.710588998724199E-9", "3.069957880290611E-10"], ["-7.40042867568498E-15", "1.406203980357771E-14", "-3.235949475631154E-11", "-3.371214131453875E-10", "3.069957880290611E-10", "1.490308048107303E-11"]], "elements": [{"units": null, "value": ".1732206266096905", "title": "eccentricity", "name": "e", "sigma": 1.35609391055253e-07, "label": "e"}, {"label": "q", "units": "au", "value": ".9442469573310487", "title": "perihelion distance", "sigma": 1.49273131973162e-07, "name": "q"}, {"units": "TDB", "title": "time of perihelion passage", "value": "2458347.088234168873", "sigma": 2.28529565079487e-05, "name": "tp", "label": "tp"}, {"label": "node", "units": "deg", "title": "longitude of the ascending node", "value": "261.2771090241423", "name": "om", "sigma": 9.53532434925535e-05}, {"title": "argument of perihelion", "value": "53.36399135060417", "units": "deg", "name": "w", "sigma": 9.85423208511155e-05, "label": "peri"}, {"label": "i", "name": "i", "sigma": 3.86045081319177e-06, "title": "inclination", "value": "1.987806152492243", "units": "deg"}], "epoch": "2458316.5"}, "elements": [{"label": "e", "sigma": "1.3439E-7", "name": "e", "units": null, "title": "eccentricity", "value": ".1737027269988017"}, {"label": "a", "units": "au", "value": "1.143471333578132", "title": "semi-major axis", "sigma": "7.0467E-9", "name": "a"}, {"sigma": "1.4977E-7", "name": "q", "title": "perihelion distance", "value": ".9448472446906542", "units": "au", "label": "q"}, {"units": "deg", "title": "inclination; angle with respect to x-y ecliptic plane", "value": "1.995148339226582", "name": "i", "sigma": "3.8903E-6", "label": "i"}, {"name": "om", "sigma": "9.3753E-5", "value": "260.5621662627022", "title": "longitude of the ascending node", "units": "deg", "label": "node"}, {"name": "w", "sigma": "9.7013E-5", "units": "deg", "value": "54.35407602563899", "title": "argument of perihelion", "label": "peri"}, {"label": "M", "units": "deg", "value": "139.5110090569247", "title": "mean anomaly", "sigma": "1.7707E-5", "name": "ma"}, {"name": "tp", "sigma": "2.1073E-5", "title": "time of perihelion passage", "value": "2461027.421816624715", "units": "TDB", "label": "tp"}, {"sigma": "4.1285E-6", "name": "per", "units": "d", "title": "sidereal orbital period", "value": "446.618130255792", "label": "period"}, {"label": "n", "units": "deg/d", "value": ".8060577383945808", "title": "mean motion", "sigma": "7.4511E-9", "name": "n"}, {"units": "au", "value": "1.34209542246561", "title": "aphelion distance", "name": "ad", "sigma": "8.2707E-9", "label": "Q"}], "epoch": "2461200.5"}